STAR ONE D2             
1 49055U 21069A   26155.17128294  .00000000  00000+0  00000+0 0  9992
2 49055   0.0112 352.6812 0001639 108.8545 142.6533  1.00268643 17817
EUTELSAT QUANTUM        
1 49056U 21069B   26156.14491851  .00000138  00000+0  00000+0 0  9995
2 49056   0.0121 327.9922 0002519 102.0207 283.4409  1.00271293 17804
ZHONGXING-2E            
1 49062U 21071A   26156.18566958 -.00000279  00000+0  00000+0 0  9997
2 49062   0.0428  95.5527 0002248  43.9646 279.0037  1.00270013 17918
TJS-7                   
1 49115U 21077A   26156.15633737 -.00000112  00000+0  00000+0 0  9995
2 49115   0.4778  86.2436 0002544 332.9107 151.2706  1.00271610  9433
CHINASAT 9B             
1 49125U 21080A   26155.51383828 -.00000300  00000+0  00000+0 0  9991
2 49125   0.0134  29.6015 0002073  61.6976  88.0197  1.00268767 17526
SHIJIAN-21 (SJ-21)      
1 49330U 21094A   26155.86779455 -.00000336  00000+0  00000+0 0  9996
2 49330   5.0835  61.2536 0049331 167.9485 104.4490  1.00277867  5235
SES-17                  
1 49332U 21095A   26155.83700752 -.00000260  00000+0  00000+0 0  9996
2 49332   0.0264  36.4551 0001189  39.2642  51.7813  1.00269514 17735
SYRACUSE 4A             
1 49333U 21095B   26156.15114061  .00000147  00000+0  00000+0 0  9998
2 49333   0.0166 332.3221 0001351  99.9601 281.2167  1.00269568 17829
QZS-1R (MICHIBIKI-1R)   
1 49336U 21096A   26155.72839059 -.00000245  00000+0  00000+0 0  9995
2 49336  37.4366  79.7685 0754126 271.5405 298.7927  1.00260525 16885
ZHONGXING-1D            
1 49505U 21114A   26155.30566586 -.00000324  00000+0  00000+0 0  9998
2 49505   0.0559  87.3706 0001029  80.7015 324.8938  1.00269552 16697
STPSAT-6                
1 49817U 21118A   26156.11330963 -.00000034  00000+0  00000+0 0  9994
2 49817   0.2891  85.5371 0001448 263.2086 193.8920  1.00273713 16456
EXPRESS AMU-7           
1 50001U 21123A   26153.71472487 -.00000230  00000+0  00000+0 0  9996
2 50001   0.0165 304.5721 0000622  41.0591 307.8527  1.00271575 16391
EXPRESS AMU-3           
1 50002U 21123B   26154.01532287 -.00000309  00000+0  00000+0 0  9993
2 50002   0.0160 318.5718 0000861 342.5789  58.8457  1.00270974  6892
TIANLIAN 2-02           
1 50005U 21124A   26156.16927194 -.00000002  00000+0  00000+0 0  9990
2 50005   0.7704  86.3174 0001240 225.5149 173.6845  1.00272656 16509
TURKSAT 5B              
1 50212U 21126A   26156.15114061  .00000158  00000+0  00000+0 0  9993
2 50212   0.0675 342.3308 0003728  16.4611 351.2088  1.00272308 16177
INMARSAT 6-F1           
1 50319U 21128A   26155.93817898 -.00000160  00000+0  00000+0 0  9990
2 50319   0.0157 308.4291 0000318 190.2339 176.2163  1.00271628 16133
SHIYAN-12 01 (SY-12 01) 
1 50321U 21129A   26154.74681170  .00000007  00000+0  00000+0 0  9993
2 50321   3.6398  80.0898 0003609 290.7507 221.5939  1.00038141 16368
SHIYAN-12 02 (SY-12 02) 
1 50322U 21129B   26154.74989406 -.00000158  00000+0  00000+0 0  9995
2 50322   3.6395  80.0970 0002710  48.7511 111.6108  1.00492737 16367
TJS-9                   
1 50574U 21135A   26156.23392492 -.00000286  00000+0  00000+0 0  9992
2 50574   0.0652 257.4385 0004919 149.3621  68.2859  1.00273525 16313
GOES 18                 
1 51850U 22021A   26156.10828294  .00000109  00000+0  00000+0 0  9998
2 51850   0.0403 134.5400 0000598 348.0435  32.9433  1.00271887  6479
ZHONGXING-6D            
1 52255U 22038A   26155.94869720 -.00000341  00000+0  00000+0 0  9995
2 52255   0.0300  94.4122 0000345 253.3105  12.2815  1.00271055 15294
NILESAT 301             
1 52817U 22061A   26156.13408512 -.00000045  00000+0  00000+0 0  9996
2 52817   0.0528  20.6982 0005678  22.3492 251.7902  1.00272133 14612
CMS-02 (GSAT-24)        
1 52903U 22067A   26156.08054949 -.00000153  00000+0  00000+0 0  9993
2 52903   0.0116  19.7932 0001907 355.7271 350.0070  1.00271904 14483
MEASAT 3D               
1 52904U 22067B   26156.15349853 -.00000229  00000+0  00000+0 0  9997
2 52904   0.0274 351.9939 0001373  44.6545   3.7118  1.00271314 14527
SES-22                  
1 52933U 22071A   26156.20869751  .00000117  00000+0  00000+0 0  9999
2 52933   0.0157 348.3166 0001350  77.8285 123.6275  1.00272992  7403
WFOV (USA 332)          
1 52940U 22073A   26155.70808747 -.00000351  00000+0  00000+0 0  9992
2 52940   3.6786  78.6864 0001848 247.4262 301.1910  1.00269264 14245
TIANLIAN 2-03           
1 53100U 22078A   26156.13755181  .00000084  00000+0  00000+0 0  9999
2 53100   0.6417  76.7847 0001558 314.1877 282.7080  1.00272055 14428
SBIRS GEO-6 (USA 336)   
1 53355U 22092A   26156.16303191 -.00000281  00000+0  00000+0 0  9990
2 53355   3.2787 317.2850 0002177 113.3245  20.6958  1.00271584 14117
EUTELSAT KONNECT VHTS   
1 53765U 22110A   26156.18725215  .00000029  00000+0  00000+0 0  9992
2 53765   0.0658 104.1532 0002875 316.5455 263.0462  1.00271249  6717
ZHONGXING-1E            
1 53813U 22112A   26156.21364125 -.00000137  00000+0  00000+0 0  9992
2 53813   0.0396 103.3934 0000403 265.8360  42.7482  1.00271369 13729
SES-20                  
1 53960U 22123A   26156.13782493 -.00000089  00000+0  00000+0 0  9996
2 53960   0.0386  77.6014 0002167  14.9665 107.5266  1.00269926 13415
SES-21                  
1 53961U 22123B   26156.15504227  .00000082  00000+0  00000+0 0  9998
2 53961   0.0274  31.7901 0000891  38.1900 108.4159  1.00270014  7098
